IRIDIUM 150             
1 43257U 18030J   24024.73928943  .00000620  00000+0  21428-3 0  9997
2 43257  86.3976 295.9212 0001647  82.0745 278.0638 14.34223209304849
IRIDIUM 143             
1 43258U 18030K   24024.79003785  .00000177  00000+0  55992-4 0  9993
2 43258  86.3980 295.9579 0001717  91.4974 268.6419 14.34218249304791
IRIDIUM 161             
1 43478U 18047C   24024.69902840  .00000105  00000+0  25195-4 0  9997
2 43478  86.4475  93.9758 0002227  93.2921 266.8535 14.43259210299008
IRIDIUM 152             
1 43479U 18047D   24024.55345144  .00000471  00000+0  16113-3 0  9996
2 43479  86.3948  93.8959 0002097  98.4936 261.6497 14.34219354297129
IRIDIUM 147             
1 43480U 18047E   24024.55979578  .00000555  00000+0  19102-3 0  9996
2 43480  86.3948  93.8827 0002233  86.1515 273.9936 14.34218687297126
IRIDIUM 110             
1 43481U 18047F   24024.70567222  .00000602  00000+0  20788-3 0  9998
2 43481  86.3950  93.8907 0002181  80.8146 279.3297 14.34220905297139
IRIDIUM 162             
1 43482U 18047G   24024.69275497  .00000722  00000+0  20884-3 0  9997
2 43482  86.4476  93.8805 0002359  93.5772 266.5699 14.43262155298996
IRIDIUM 160             
1 43569U 18061A   24024.65151060  .00000163  00000+0  51118-4 0  9998
2 43569  86.3933  62.2597 0002628  95.6702 264.4793 14.34218302288022
